#aV2015  8 27  0  0  0.00000000     288 DD+AD WGS84 FIT  NGA
## 1859 345600.00000000   300.00000000 57261 0.0000000000000
+   31     1  2  3  4  5  6  7  8  9 11 12 13 14 15 16 17 18
+         19 20 21 22 23 24 25 26 27 28 29 30 31 32  0  0  0
+          0  0  0  0  0  0  0  0  0  0  0  0  0  0  0  0  0
+          0  0  0  0  0  0  0  0  0  0  0  0  0  0  0  0  0
+          0  0  0  0  0  0  0  0  0  0  0  0  0  0  0  0  0
++         2  2  2  2  2  2  2  2  2  2  2  2  2  2  2  2  2
++         2  2  2  2  2  2  2  2  2  2  2  2  2  2  0  0  0
++         0  0  0  0  0  0  0  0  0  0  0  0  0  0  0  0  0
++         0  0  0  0  0  0  0  0  0  0  0  0  0  0  0  0  0
++         0  0  0  0  0  0  0  0  0  0  0  0  0  0  0  0  0
%c cc cc ccc ccc cccc cccc cccc cccc ccccc ccccc ccccc ccccc
%c cc cc ccc ccc cccc cccc cccc cccc ccccc ccccc ccccc ccccc
%f  0.0000000  0.000000000  0.00000000000  0.000000000000000
%f  0.0000000  0.000000000  0.00000000000  0.000000000000000
%i    0    0    0    0      0      0      0      0         0
%i    0    0    0    0      0      0      0      0         0
/*      NGA, ST. LOUIS,MO.                                  
/*   EPHEMERIS COMPUTED FROM  1 DAYS OF DATA                
/*   EPOCHA SMOOTHER                                       
/* CCCCCCCCCCCCCCCCCCCCCCCCCCCCCCCCCCCCCCCCCCCCCCCCCCCCCCCCC
*  2015  8 27 19 20  0.00000000
P  1  22231.912311  12511.887783   7689.379752     -0.539217                    
V  1   5735.037063   8304.922641 -29644.040423      0.006427                    
P  2 -10833.551020 -20992.450969  12944.898570    586.166225                    
V  2  13643.432748   8126.846493  24909.959414      0.018535                    
P  3  14212.817962   6154.627541  21585.397765     18.810619                    
V  3  -5623.520307  26808.952234  -3969.692374      0.020242                    
P  4  19616.502965  18071.787345  -1647.298691    -14.432210                    
V  4  -3343.734619   1371.373368 -31046.345244     -0.038571                    
P  5  -3671.524139 -23779.662726 -11085.187802   -201.889163                    
V  5   5477.858473 -13310.270412  27059.426002      0.041597                    
P  6    755.040537 -17634.792978  19847.645307     46.395431                    
V  6  19765.923344  15669.416077  13159.616135      0.076261                    
P  7  18941.679453      1.101487 -18658.889846    482.097970                    
V  7  16751.132257  16913.699754  16518.630047      0.018815                    
P  8  17396.454352   7668.664002 -18496.473995     -3.213114                    
V  8 -21782.865699   9169.476020 -16662.095704     -0.013104                    
P  9  25420.934838  -7525.053814   1772.979826    -10.948112                    
V  9  -1164.834033   3518.104485  31537.228859      0.004053                    
P 11  24416.406091  10554.903266  -1374.767867   -600.537926                    
V 11  -2774.965623   4053.398912 -30081.505329     -0.022941                    
P 12 -12104.856745  -9754.548291  21463.456160    322.736616                    
V 12   6912.464708 -26500.932229  -7901.672483      0.034487                    
P 13  -6517.846124 -13800.791017 -21859.856734   -144.454183                    
V 13  26686.205075  -6281.524053  -4125.725513     -0.030106                    
P 14 -17509.344038  14468.467790  13889.740883     38.820392                    
V 14 -17242.158835   2297.323254 -24728.136550     -0.026537                    
P 15 -18234.441794  -7213.407253 -18150.081126   -268.386505                    
V 15  20545.034378 -10130.012856 -16373.060643     -0.020592                    
P 16   1354.189348  23825.334777 -11334.944864    -92.846758                    
V 16  -5480.476000  13399.404831  28062.637602      0.040775                    
P 17  16216.772168 -15182.888386  14694.979914   -185.679221                    
V 17  17989.748027  -3333.860628 -23990.504629     -0.013051                    
P 18 -14973.438843  13634.902684 -16532.239681    429.062532                    
V 18   1058.870776 -22328.336750 -19088.440492      0.032228                    
P 19  19316.055726   7426.863062 -17135.518421   -519.068605                    
V 19 -20238.665315   6159.822795 -19979.307934     -0.006844                    
P 20 -14204.366747  -9821.415122 -20310.943272    350.467350                    
V 20   4199.380090 -25294.475141   9446.822829      0.031239                    
P 21 -17494.210887   3670.443762 -19041.598668   -475.277140                    
V 21 -18707.379640 -17679.387445  12962.351867     -0.028984                    
P 22  -9376.216219  23706.703153  -6883.484423    385.576054                    
V 22  -2364.531467  -9686.993538 -29309.852411      0.037116                    
P 23  23055.853919   2434.830973  13511.115504   -129.726583                    
V 23 -15155.092881   7452.826978  24385.690630     -0.022578                    
P 24 -22108.604375 -14008.061061   4946.934407     -3.705707                    
V 24  -2972.716857  -6258.091196 -30642.448849     -0.006425                    
P 25 -15347.612961   5027.950515  20949.720749    -30.918899                    
V 25   4402.035789 -26471.121290   9688.361981     -0.049335                    
P 26  -4380.500929  26178.774416   -889.766205    -37.115106                    
V 26  -2990.967965    570.808506  31727.862321     -0.094327                    
P 27   4414.668813  14415.632200 -21891.677862     15.132265                    
V 27 -26217.700286   8975.525090    740.588423      0.029168                    
P 28  12275.365899 -21177.012532  -9581.737711    463.479288                    
V 28  -1551.558444  13118.257229 -29190.456885      0.026591                    
P 29 -25851.350554   4523.714084   3959.588724    630.588937                    
V 29   4168.419127  -3669.023325  31545.176234      0.023740                    
P 30  11237.398145 -10444.099820 -21686.156927     13.927742                    
V 30  19375.648894  19579.642440    530.576652      0.069336                    
P 31   -749.781086  17688.620348  19817.158408    304.940408                    
V 31 -19060.680445 -16145.501417  14108.200179     -0.013072                    
P 32   7206.176735  19379.836796  16925.237109    -60.427361                    
V 32  -7436.634269  20136.949643 -19308.775021      0.108141                    
EOF
